start=new Date('2022-01-19T00:00:00.000Z').valueOf();
sats=[{"ECCENTRICITY":"0.00019980","LAUNCH_DATE":"2020-01-07","RA_OF_ASC_NODE":"288.6773","CLASSIFICATION_TYPE":"U","NORAD_CAT_ID":"44915","FILE":"3276875","SEMIMAJOR_AXIS":"6925.354","COUNTRY_CODE":"US","MEAN_ELEMENT_THEORY":"SGP4","GP_ID":"194151994","SITE":"AFETR","TLE_LINE2":"2 44915  53.0537 288.6773 0001998  67.7761 292.3440 15.06398157112148","PERIAPSIS":"545.836","BSTAR":"0.00022017000000","ELEMENT_SET_NO":"999","OBJECT_ID":"2020-001B","REF_FRAME":"TEME","CENTER_NAME":"EARTH","MEAN_MOTION_DDOT":"0.0000000000000","TIME_SYSTEM":"UTC","RCS_SIZE":"LARGE","TLE_LINE1":"1 44915U 20001B   22018.93057570  .00002999  00000-0  22017-3 0  9999","EPOCH":"2022-01-18T22:20:01.740480","REV_AT_EPOCH":"11214","MEAN_MOTION_DOT":"0.00002999","INCLINATION":"53.0537","APOAPSIS":"548.603","ARG_OF_PERICENTER":"67.7761","PERIOD":"95.592","OBJECT_TYPE":"PAYLOAD","OBJECT_NAME":"STARLINK-1084","MEAN_MOTION":"15.06398157","EPHEMERIS_TYPE":"0","DECAY_DATE":null,"MEAN_ANOMALY":"292.3440"},{"MEAN_MOTION_DOT":"-0.00000139","INCLINATION":"53.0542","APOAPSIS":"548.309","PERIOD":"95.593","ARG_OF_PERICENTER":"62.1496","EPOCH":"2022-01-18T20:49:47.862912","REV_AT_EPOCH":"11213","MEAN_ANOMALY":"297.9649","DECAY_DATE":null,"OBJECT_TYPE":"PAYLOAD","OBJECT_NAME":"STARLINK-1098","EPHEMERIS_TYPE":"0","MEAN_MOTION":"15.06391491","REF_FRAME":"TEME","MEAN_MOTION_DDOT":"0.0000000000000","CENTER_NAME":"EARTH","TIME_SYSTEM":"UTC","RCS_SIZE":"LARGE","TLE_LINE1":"1 44917U 20001D   22018.86791508 -.00000139  00000-0  95406-5 0  9998","COUNTRY_CODE":"US","MEAN_ELEMENT_THEORY":"SGP4","GP_ID":"194152245","SITE":"AFETR","SEMIMAJOR_AXIS":"6925.375","ELEMENT_SET_NO":"999","OBJECT_ID":"2020-001D","TLE_LINE2":"2 44917  53.0542 288.9658 0001544  62.1496 297.9649 15.06391491112137","PERIAPSIS":"546.170","BSTAR":"0.00000954060000","LAUNCH_DATE":"2020-01-07","ECCENTRICITY":"0.00015440","RA_OF_ASC_NODE":"288.9658","FILE":"3276875","CLASSIFICATION_TYPE":"U","NORAD_CAT_ID":"44917"},{"DECAY_DATE":null,"MEAN_ANOMALY":"293.5200","OBJECT_TYPE":"PAYLOAD","OBJECT_NAME":"STARLINK-1099","MEAN_MOTION":"15.06388291","EPHEMERIS_TYPE":"0","MEAN_MOTION_DOT":"0.00001527","INCLINATION":"53.0528","APOAPSIS":"548.333","PERIOD":"95.593","ARG_OF_PERICENTER":"66.5954","EPOCH":"2022-01-18T22:41:15.990144","REV_AT_EPOCH":"11288","TLE_LINE1":"1 44918U 20001E   22018.94532396  .00001527  00000-0  12142-3 0  9991","REF_FRAME":"TEME","TIME_SYSTEM":"UTC","MEAN_MOTION_DDOT":"0.0000000000000","CENTER_NAME":"EARTH","RCS_SIZE":"LARGE","ELEMENT_SET_NO":"999","OBJECT_ID":"2020-001E","TLE_LINE2":"2 44918  53.0528 288.6264 0001564  66.5954 293.5200 15.06388291112882","PERIAPSIS":"546.166","BSTAR":"0.00012142000000","COUNTRY_CODE":"US","MEAN_ELEMENT_THEORY":"SGP4","GP_ID":"194152990","SITE":"AFETR","SEMIMAJOR_AXIS":"6925.384","FILE":"3276875","CLASSIFICATION_TYPE":"U","NORAD_CAT_ID":"44918","LAUNCH_DATE":"2020-01-07","ECCENTRICITY":"0.00015640","RA_OF_ASC_NODE":"288.6264"},{"SITE":"AFETR","GP_ID":"194153725","MEAN_ELEMENT_THEORY":"SGP4","COUNTRY_CODE":"US","SEMIMAJOR_AXIS":"6925.412","OBJECT_ID":"2020-001G","ELEMENT_SET_NO":"999","BSTAR":"-0.00003403200000","PERIAPSIS":"546.212","TLE_LINE2":"2 44920  53.0552 288.8481 0001537  57.1271 302.9866 15.06379354112134","RA_OF_ASC_NODE":"288.8481","ECCENTRICITY":"0.00015370","LAUNCH_DATE":"2020-01-07","FILE":"3276875","NORAD_CAT_ID":"44920","CLASSIFICATION_TYPE":"U","ARG_OF_PERICENTER":"57.1271","PERIOD":"95.593","APOAPSIS":"548.341","INCLINATION":"53.0552","MEAN_MOTION_DOT":"-0.00000788","REV_AT_EPOCH":"11213","EPOCH":"2022-01-18T21:26:58.323840","DECAY_DATE":null,"MEAN_ANOMALY":"302.9866","MEAN_MOTION":"15.06379354","EPHEMERIS_TYPE":"0","OBJECT_NAME":"STARLINK-1102","OBJECT_TYPE":"PAYLOAD","RCS_SIZE":"LARGE","TIME_SYSTEM":"UTC","MEAN_MOTION_DDOT":"0.0000000000000","CENTER_NAME":"EARTH","REF_FRAME":"TEME","TLE_LINE1":"1 44920U 20001G   22018.89373060 -.00000788  00000-0 -34032-4 0  9992"},{"ELEMENT_SET_NO":"999","OBJECT_ID":"2020-001H","PERIAPSIS":"545.738","TLE_LINE2":"2 44921  53.0516 289.0450 0002217  60.9660 299.1551 15.06380430112106","BSTAR":"-0.00001515900000","COUNTRY_CODE":"US","SITE":"AFETR","GP_ID":"194152495","MEAN_ELEMENT_THEORY":"SGP4","SEMIMAJOR_AXIS":"6925.409","FILE":"3276875","CLASSIFICATION_TYPE":"U","NORAD_CAT_ID":"44921","LAUNCH_DATE":"2020-01-07","ECCENTRICITY":"0.00022170","RA_OF_ASC_NODE":"289.0450","DECAY_DATE":null,"MEAN_ANOMALY":"299.1551","OBJECT_TYPE":"PAYLOAD","MEAN_MOTION":"15.06380430","EPHEMERIS_TYPE":"0","OBJECT_NAME":"STARLINK-1103","INCLINATION":"53.0516","MEAN_MOTION_DOT":"-0.00000507","PERIOD":"95.593","ARG_OF_PERICENTER":"60.9660","APOAPSIS":"548.809","EPOCH":"2022-01-18T20:23:16.909728","REV_AT_EPOCH":"11210","TLE_LINE1":"1 44921U 20001H   22018.84950127 -.00000507  00000-0 -15159-4 0  9991","CENTER_NAME":"EARTH","MEAN_MOTION_DDOT":"0.0000000000000","TIME_SYSTEM":"UTC","REF_FRAME":"TEME","RCS_SIZE":"LARGE"},{"REF_FRAME":"TEME","MEAN_MOTION_DDOT":"0.0000000000000","TIME_SYSTEM":"UTC","CENTER_NAME":"EARTH","RCS_SIZE":"LARGE","TLE_LINE1":"1 44922U 20001J   22018.88266605  .00009165  00000-0  63355-3 0  9994","EPOCH":"2022-01-18T21:11:02.346720","REV_AT_EPOCH":"11213","MEAN_MOTION_DOT":"0.00009165","INCLINATION":"53.0531","APOAPSIS":"548.360","PERIOD":"95.593","ARG_OF_PERICENTER":"67.8650","OBJECT_TYPE":"PAYLOAD","OBJECT_NAME":"STARLINK-1104","EPHEMERIS_TYPE":"0","MEAN_MOTION":"15.06388239","MEAN_ANOMALY":"292.2509","DECAY_DATE":null,"LAUNCH_DATE":"2020-01-07","ECCENTRICITY":"0.00016030","RA_OF_ASC_NODE":"288.8906","CLASSIFICATION_TYPE":"U","NORAD_CAT_ID":"44922","FILE":"3276875","SEMIMAJOR_AXIS":"6925.385","COUNTRY_CODE":"US","MEAN_ELEMENT_THEORY":"SGP4","SITE":"AFETR","GP_ID":"194152746","TLE_LINE2":"2 44922  53.0531 288.8906 0001603  67.8650 292.2509 15.06388239112135","PERIAPSIS":"546.139","BSTAR":"0.00063355000000","ELEMENT_SET_NO":"999","OBJECT_ID":"2020-001J"},{"SITE":"AFETR","GP_ID":"194153491","MEAN_ELEMENT_THEORY":"SGP4","COUNTRY_CODE":"US","SEMIMAJOR_AXIS":"6925.415","OBJECT_ID":"2020-001K","ELEMENT_SET_NO":"999","BSTAR":"-0.00007953600000","PERIAPSIS":"546.159","TLE_LINE2":"2 44923  53.0537 288.7761 0001619  61.6504 298.4648 15.06378170112132","RA_OF_ASC_NODE":"288.7761","LAUNCH_DATE":"2020-01-07","ECCENTRICITY":"0.00016190","FILE":"3276875","NORAD_CAT_ID":"44923","CLASSIFICATION_TYPE":"U","PERIOD":"95.594","ARG_OF_PERICENTER":"61.6504","APOAPSIS":"548.402","INCLINATION":"53.0537","MEAN_MOTION_DOT":"-0.00001465","REV_AT_EPOCH":"11213","EPOCH":"2022-01-18T21:48:12.266784","DECAY_DATE":null,"MEAN_ANOMALY":"298.4648","MEAN_MOTION":"15.06378170","EPHEMERIS_TYPE":"0","OBJECT_NAME":"STARLINK-1106","OBJECT_TYPE":"PAYLOAD","RCS_SIZE":"LARGE","TIME_SYSTEM":"UTC","MEAN_MOTION_DDOT":"0.0000000000000","CENTER_NAME":"EARTH","REF_FRAME":"TEME","TLE_LINE1":"1 44923U 20001K   22018.90847531 -.00001465  00000-0 -79536-4 0  9997"},{"MEAN_ELEMENT_THEORY":"SGP4","SITE":"AFETR","GP_ID":"194153225","COUNTRY_CODE":"US","SEMIMAJOR_AXIS":"6925.435","OBJECT_ID":"2020-001L","ELEMENT_SET_NO":"999","BSTAR":"-0.00002063500000","TLE_LINE2":"2 44924  53.0543 288.8324 0001711  61.9940 298.1222 15.06371755112133","PERIAPSIS":"546.115","RA_OF_ASC_NODE":"288.8324","LAUNCH_DATE":"2020-01-07","ECCENTRICITY":"0.00017110","FILE":"3276875","NORAD_CAT_ID":"44924","CLASSIFICATION_TYPE":"U","APOAPSIS":"548.485","PERIOD":"95.594","ARG_OF_PERICENTER":"61.9940","MEAN_MOTION_DOT":"-0.00000589","INCLINATION":"53.0543","REV_AT_EPOCH":"11213","EPOCH":"2022-01-18T21:32:16.875456","DECAY_DATE":null,"MEAN_ANOMALY":"298.1222","OBJECT_NAME":"STARLINK-1111","EPHEMERIS_TYPE":"0","MEAN_MOTION":"15.06371755","OBJECT_TYPE":"PAYLOAD","RCS_SIZE":"LARGE","REF_FRAME":"TEME","TIME_SYSTEM":"UTC","MEAN_MOTION_DDOT":"0.0000000000000","CENTER_NAME":"EARTH","TLE_LINE1":"1 44924U 20001L   22018.89741754 -.00000589  00000-0 -20635-4 0  9998"},{"OBJECT_NAME":"STARLINK-1112","MEAN_MOTION":"15.06409810","EPHEMERIS_TYPE":"0","OBJECT_TYPE":"PAYLOAD","DECAY_DATE":null,"MEAN_ANOMALY":"301.6679","REV_AT_EPOCH":"11213","EPOCH":"2022-01-18T21:53:27.567168","APOAPSIS":"548.349","PERIOD":"95.592","ARG_OF_PERICENTER":"58.4474","MEAN_MOTION_DOT":"0.00003548","INCLINATION":"53.0550","TLE_LINE1":"1 44925U 20001M   22018.91212462  .00003548  00000-0  25692-3 0  9994","RCS_SIZE":"LARGE","REF_FRAME":"TEME","MEAN_MOTION_DDOT":"0.0000000000000","TIME_SYSTEM":"UTC","CENTER_NAME":"EARTH","BSTAR":"0.00025692000000","TLE_LINE2":"2 44925  53.0550 288.7606 0001683  58.4474 301.6679 15.06409810112135","PERIAPSIS":"546.018","OBJECT_ID":"2020-001M","ELEMENT_SET_NO":"999","SEMIMAJOR_AXIS":"6925.318","MEAN_ELEMENT_THEORY":"SGP4","SITE":"AFETR","GP_ID":"194151995","COUNTRY_CODE":"US","NORAD_CAT_ID":"44925","CLASSIFICATION_TYPE":"U","FILE":"3276875","RA_OF_ASC_NODE":"288.7606","LAUNCH_DATE":"2020-01-07","ECCENTRICITY":"0.00016830"},{"REV_AT_EPOCH":"11285","EPOCH":"2022-01-18T21:46:07.788576","APOAPSIS":"550.950","ARG_OF_PERICENTER":"63.2057","PERIOD":"95.645","MEAN_MOTION_DOT":"-0.00000294","INCLINATION":"53.0000","OBJECT_NAME":"STARLINK-1113","MEAN_MOTION":"15.05572762","EPHEMERIS_TYPE":"0","OBJECT_TYPE":"PAYLOAD","MEAN_ANOMALY":"296.9108","DECAY_DATE":null,"RCS_SIZE":"LARGE","REF_FRAME":"TEME","CENTER_NAME":"EARTH","MEAN_MOTION_DDOT":"0.0000000000000","TIME_SYSTEM":"UTC","TLE_LINE1":"1 44926U 20001N   22018.90703459 -.00000294  00000-0 -96814-6 0  9999","SEMIMAJOR_AXIS":"6927.885","MEAN_ELEMENT_THEORY":"SGP4","SITE":"AFETR","GP_ID":"194152246","COUNTRY_CODE":"US","BSTAR":"-0.00000096814000","TLE_LINE2":"2 44926  53.0000 288.7868 0001732  63.2057 296.9108 15.05572762112850","PERIAPSIS":"548.550","OBJECT_ID":"2020-001N","ELEMENT_SET_NO":"999","RA_OF_ASC_NODE":"288.7868","ECCENTRICITY":"0.00017320","LAUNCH_DATE":"2020-01-07","NORAD_CAT_ID":"44926","CLASSIFICATION_TYPE":"U","FILE":"3276875"}];
